{
  "type": "FeatureCollection",
  "features": [
    {
      "type": "Feature",
      "properties": {
        "norad_id": 48859,
        "name": "GPS BIII-5  (PRN 11)",
        "group": "gps-ops",
        "lat": -52.51763357426897,
        "lon": -135.1091681156412,
        "alt_km": 20127.753761983728,
        "timestamp": "2025-12-09T09:46:47.904255+00:00",
        "meta_object_name": "GPS BIII-5  (PRN 11)",
        "meta_object_id": "2021-054A",
        "meta_epoch": "2025-12-08T04:14:32.423424",
        "meta_mean_motion": 2.00553628,
        "meta_eccentricity": 0.0024681,
        "meta_inclination": 55.2581,
        "meta_ra_of_asc_node": 340.1367,
        "meta_arg_of_pericenter": 233.3965,
        "meta_mean_anomaly": 212.8622,
        "meta_ephemeris_type": 0,
        "meta_classification_type": "U",
        "meta_norad_cat_id": 48859,
        "meta_element_set_no": 999,
        "meta_rev_at_epoch": 3292,
        "meta_bstar": 0,
        "meta_mean_motion_dot": -8.6e-07,
        "meta_mean_motion_ddot": 0,
        "tle_line1": "1 48859U 21054A   25342.17676416 -.00000086  00000+0  00000+0 0  9993",
        "tle_line2": "2 48859  55.2581 340.1367 0024681 233.3965 212.8622  2.00553628 32928"
      },
      "geometry": {
        "type": "Point",
        "coordinates": [
          -135.1091681156412,
          -52.51763357426897
        ]
      }
    },
    {
      "type": "Feature",
      "properties": {
        "norad_id": 55268,
        "name": "GPS BIII-6  (PRN 28)",
        "group": "gps-ops",
        "lat": -46.82338215844184,
        "lon": 107.89021826214682,
        "alt_km": 20183.322597292088,
        "timestamp": "2025-12-09T09:46:47.904267+00:00",
        "meta_object_name": "GPS BIII-6  (PRN 28)",
        "meta_object_id": "2023-009A",
        "meta_epoch": "2025-12-08T05:52:26.989248",
        "meta_mean_motion": 2.00555991,
        "meta_eccentricity": 0.0003615,
        "meta_inclination": 55.1046,
        "meta_ra_of_asc_node": 156.0217,
        "meta_arg_of_pericenter": 356.7859,
        "meta_mean_anomaly": 180.9144,
        "meta_ephemeris_type": 0,
        "meta_classification_type": "U",
        "meta_norad_cat_id": 55268,
        "meta_element_set_no": 999,
        "meta_rev_at_epoch": 2141,
        "meta_bstar": 0,
        "meta_mean_motion_dot": 5.9e-07,
        "meta_mean_motion_ddot": 0,
        "tle_line1": "1 55268U 23009A   25342.24475682  .00000059  00000+0  00000+0 0  9996",
        "tle_line2": "2 55268  55.1046 156.0217 0003615 356.7859 180.9144  2.00555991 21410"
      },
      "geometry": {
        "type": "Point",
        "coordinates": [
          107.89021826214682,
          -46.82338215844184
        ]
      }
    },
    {
      "type": "Feature",
      "properties": {
        "norad_id": 62339,
        "name": "GPS BIII-7  (PRN 01)",
        "group": "gps-ops",
        "lat": 11.87486927674371,
        "lon": -9.634306000245939,
        "alt_km": 20153.3938703605,
        "timestamp": "2025-12-09T09:46:47.904279+00:00",
        "meta_object_name": "GPS BIII-7  (PRN 01)",
        "meta_object_id": "2024-242A",
        "meta_epoch": "2025-12-07T21:14:38.700960",
        "meta_mean_motion": 2.00567469,
        "meta_eccentricity": 0.00119344,
        "meta_inclination": 54.9247,
        "meta_ra_of_asc_node": 341.9365,
        "meta_arg_of_pericenter": 343.8064,
        "meta_mean_anomaly": 11.4848,
        "meta_ephemeris_type": 0,
        "meta_classification_type": "U",
        "meta_norad_cat_id": 62339,
        "meta_element_set_no": 999,
        "meta_rev_at_epoch": 741,
        "meta_bstar": 0,
        "meta_mean_motion_dot": -8.7e-07,
        "meta_mean_motion_ddot": 0,
        "tle_line1": "1 62339U 24242A   25341.88517015 -.00000087  00000+0  00000+0 0  9991",
        "tle_line2": "2 62339  54.9247 341.9365 0011934 343.8064  11.4848  2.00567469  7410"
      },
      "geometry": {
        "type": "Point",
        "coordinates": [
          -9.634306000245939,
          11.87486927674371
        ]
      }
    },
    {
      "type": "Feature",
      "properties": {
        "norad_id": 64202,
        "name": "GPS BIII-8  (PRN 21)",
        "group": "gps-ops",
        "lat": -19.529012150615422,
        "lon": -126.88662804812473,
        "alt_km": 20188.56948004305,
        "timestamp": "2025-12-09T09:46:47.904291+00:00",
        "meta_object_name": "GPS BIII-8  (PRN 21)",
        "meta_object_id": "2025-116A",
        "meta_epoch": "2025-12-08T05:53:38.601888",
        "meta_mean_motion": 2.0055836,
        "meta_eccentricity": 0.00052097,
        "meta_inclination": 55.1026,
        "meta_ra_of_asc_node": 38.8223,
        "meta_arg_of_pericenter": 307.4427,
        "meta_mean_anomaly": 137.7304,
        "meta_ephemeris_type": 0,
        "meta_classification_type": "U",
        "meta_norad_cat_id": 64202,
        "meta_element_set_no": 999,
        "meta_rev_at_epoch": 404,
        "meta_bstar": 0,
        "meta_mean_motion_dot": -7.9e-07,
        "meta_mean_motion_ddot": 0,
        "tle_line1": "1 64202U 25116A   25342.24558567 -.00000079  00000+0  00000+0 0  9992",
        "tle_line2": "2 64202  55.1026  38.8223 0005209 307.4427 137.7304  2.00558360  4046"
      },
      "geometry": {
        "type": "Point",
        "coordinates": [
          -126.88662804812473,
          -19.529012150615422
        ]
      }
    }
  ]
}